{
"type": "FeatureCollection",
"name": "chennai_boundary",
"crs": { "type": "name", "properties": { "name": "urn:ogc:def:crs:EPSG::32644" } },
"features": [
{ "type": "Feature", "properties": { "name": "Chennai", "source": "GADM 4.1 India ADM2" }, "geometry": { "type": "Polygon", "coordinates": [ [ [ 415833.380723734677304, 1432729.516488573513925 ], [ 414290.668473483936395, 1431937.950960351387039 ], [ 413608.124111579440068, 1432205.501137287355959 ], [ 413273.941393341694493, 1432870.124880802119151 ], [ 412385.935609863488935, 1433326.366243163589388 ], [ 412257.597877263731789, 1433901.877126403152943 ], [ 412575.533312611747533, 1434973.662541257217526 ], [ 413066.802030052233022, 1435989.606713604182005 ], [ 413382.260052092024125, 1436287.228297014255077 ], [ 411856.679935719759669, 1437431.204616754781455 ], [ 411912.88120641594287, 1438050.371023726416752 ], [ 413020.689612955902703, 1438566.665037070633844 ], [ 412696.016719950595871, 1438777.825284416088834 ], [ 411958.906859155045822, 1438879.705410220194608 ], [ 410688.95413017750252, 1438529.874410659307614 ], [ 410312.015798882232048, 1439338.462031831499189 ], [ 410325.234290809603408, 1440068.365916042588651 ], [ 409959.571796324104071, 1440998.582588243531063 ], [ 410453.366680082806852, 1442788.662904048804194 ], [ 410520.151647832768504, 1443319.317059273365885 ], [ 410348.867117448709905, 1443994.524631108622998 ], [ 411470.527824580087326, 1445506.083157853921875 ], [ 411232.721322314580902, 1445728.047432107152417 ], [ 411408.832176024385262, 1446545.905470791272819 ], [ 411118.47739995259326, 1447276.793790788389742 ], [ 412142.512879160174634, 1448821.868500216398388 ], [ 412166.854620639292989, 1449651.27756158914417 ], [ 414509.549069932079874, 1450030.953446561237797 ], [ 414519.31838369515026, 1449688.069922847207636 ], [ 416535.922622032347135, 1449792.444338891422376 ], [ 416453.930583022069186, 1451341.057075497228652 ], [ 416898.617501245927997, 1451428.179748605471104 ], [ 417626.658118834835477, 1452023.201116052223369 ], [ 418255.428931168862619, 1452054.492244669236243 ], [ 418264.217764395521954, 1451368.764636016217992 ], [ 418675.720724009908736, 1451234.821344313211739 ], [ 420073.621455763059203, 1451097.983761535491794 ], [ 420583.880029833875597, 1451372.988221208099276 ], [ 421407.957279047346674, 1451470.14363578450866 ], [ 423900.346332504763268, 1451230.841539779212326 ], [ 423867.058544051717035, 1450954.445040846941993 ], [ 424116.028602260164917, 1450832.097961481893435 ], [ 424385.396120611345395, 1450245.195775695610791 ], [ 424384.143302621028852, 1449791.757822389481589 ], [ 424654.471380269969814, 1449547.702535693766549 ], [ 424674.873590228089597, 1449083.145927370758727 ], [ 424522.25758852227591, 1448773.899136471794918 ], [ 424316.536069208406843, 1448862.94307663035579 ], [ 424284.779594254912809, 1449139.519366268534213 ], [ 424436.541995996027254, 1449139.10018671117723 ], [ 424524.116918913205154, 1449448.5257449420169 ], [ 424318.920357832685113, 1449725.58080229954794 ], [ 423957.793570512614679, 1448498.97167835617438 ], [ 424282.089642541890498, 1448166.287434890167788 ], [ 423988.781027348712087, 1447945.908622866729274 ], [ 423804.920383118034806, 1448101.252751999301836 ], [ 423651.70423947495874, 1447581.880517159588635 ], [ 424193.407717848895118, 1447458.722454275237396 ], [ 424497.956304234452546, 1447822.846458470216021 ], [ 424521.313009055622388, 1448431.05622624931857 ], [ 424770.734371312777512, 1448463.548829385777935 ], [ 424770.400350482726935, 1448341.894963724305853 ], [ 424618.298959222971462, 1448220.658179518999532 ], [ 424463.575620782678016, 1447148.310142033267766 ], [ 424192.031947499257512, 1446961.047453354112804 ], [ 424158.59152138826903, 1446629.354105863254517 ], [ 423854.762468110886402, 1446530.659937929594889 ], [ 423647.856162969488651, 1446199.448929279344156 ], [ 423036.865267896675505, 1444818.713014331646264 ], [ 422494.863289609667845, 1444853.415555226849392 ], [ 422743.69828716549091, 1444664.702373058767989 ], [ 422764.325254718307406, 1444288.620043477043509 ], [ 422406.378998903790489, 1444234.330689208814874 ], [ 422165.75356520479545, 1443494.021449069026858 ], [ 421922.261008211178705, 1441747.303910514106974 ], [ 422040.50219953560736, 1441382.00424562767148 ], [ 421665.166795929253567, 1439038.448889768915251 ], [ 421371.774062831304036, 1438829.152626655995846 ], [ 420883.970616466598585, 1438896.904442880768329 ], [ 420493.034420368727297, 1438710.016088191652671 ], [ 420970.091280935332179, 1438675.46688559348695 ], [ 421099.527994449657854, 1438431.786768518155441 ], [ 421544.74821779737249, 1438640.648307297611609 ], [ 421609.311742214020342, 1438463.512497070943937 ], [ 421304.43753974075662, 1438033.058823219733313 ], [ 421335.994498888612725, 1437690.123760321410373 ], [ 420966.133434107003268, 1437293.037070788675919 ], [ 421062.441883233957924, 1436839.321325197117403 ], [ 419997.10401421575807, 1432219.504435803275555 ], [ 418512.374253534129821, 1432666.211028049234301 ], [ 417948.341410694178194, 1432667.875376578653231 ], [ 417558.613604860147461, 1432923.402162582846358 ], [ 416997.36901648901403, 1433854.0831218524836 ], [ 415833.380723734677304, 1432729.516488573513925 ] ] ] } }
]
}
